0 GEOEYE 1
1 33331U 08042A   13282.76901213  .00000217  00000-0  49993-4 0  6144
2 33331 098.1431 355.4709 0010647 155.9144 204.2550 14.64445857272075
0 GEOEYE 1
1 33331U 08042A   13283.17896864  .00000439  00000-0  91875-4 0  6158
2 33331 098.1430 355.8765 0010526 154.7391 205.4386 14.64447336272138
0 GEOEYE 1
1 33331U 08042A   13283.65724852  .00000572  00000-0  11707-3 0  6162
2 33331 098.1432 356.3500 0010606 153.0743 207.1007 14.64448637272207
0 GEOEYE 1
1 33331U 08042A   13284.20385608  .00000755  00000-0  15165-3 0  6172
2 33331 098.1431 356.8906 0010768 151.0308 209.1495 14.64449844272287
0 GEOEYE 1
1 33331U 08042A   13285.43372339  .00000152  00000-0  37740-4 0  6204
2 33331 098.1429 358.1079 0010802 147.1486 213.0364 14.64448335272465
0 GEOEYE 1
1 33331U 08042A   13285.70702743  .00000126  00000-0  32890-4 0  6213
2 33331 098.1426 358.3780 0010766 146.2380 213.9502 14.64448409272505
0 GEOEYE 1
1 33331U 08042A   13286.11698407 -.00000099  00000-0 -97245-5 0  6228
2 33331 098.1421 358.7831 0010883 145.1031 215.0888 14.64447356272568
0 GEOEYE 1
1 33331U 08042A   13286.18531003 -.00000074  00000-0 -48724-5 0  6235
2 33331 098.1422 358.8508 0010855 144.8053 215.3886 14.64447647272575
0 GEOEYE 1
1 33331U 08042A   13286.80024296  .00000050  00000-0  18540-4 0  6240
2 33331 098.1418 359.4586 0010924 142.7339 217.4624 14.64448298272660
0 GEOEYE 1
1 33331U 08042A   13287.07354668  .00000129  00000-0  33329-4 0  6259
2 33331 098.1418 359.7288 0010872 141.6811 218.5176 14.64448746272704
0 GEOEYE 1
1 33331U 08042A   13287.21019833  .00000378  00000-0  80374-4 0  6266
2 33331 098.1415 359.8641 0010794 141.1449 219.0588 14.64450182272722
0 GEOEYE 1
1 33331U 08042A   13287.62015228  .00000355  00000-0  76007-4 0  6279
2 33331 098.1416 000.2695 0010797 139.8987 220.3010 14.64450392272787
0 GEOEYE 1
1 33331U 08042A   13287.75680404  .00000494  00000-0  10231-3 0  6288
2 33331 098.1421 000.4053 0010775 139.4452 220.7574 14.64451138272803
0 GEOEYE 1
1 33331U 08042A   13288.09843279  .00000485  00000-0  10057-3 0  6294
2 33331 098.1420 000.7431 0010778 138.4296 221.7734 14.64451440272853
0 GEOEYE 1
1 33331U 08042A   13288.16675846  .00000489  00000-0  10136-3 0  6309
2 33331 098.1418 000.8107 0010795 138.2851 221.9183 14.64451577272867
0 GEOEYE 1
1 33331U 08042A   13288.78169016  .00000440  00000-0  92186-4 0  6318
2 33331 098.1423 001.4186 0010768 136.9570 223.2469 14.64451854272950
0 GEOEYE 1
1 33331U 08042A   13289.19164485  .00000419  00000-0  88161-4 0  6324
2 33331 098.1422 001.8241 0010804 135.6288 224.5780 14.64452199273019
0 GEOEYE 1
1 33331U 08042A   13289.19164488  .00000419  00000-0  88161-4 0  6338
2 33331 098.1422 001.8241 0010804 135.6288 224.5782 14.64452199273011
0 GEOEYE 1
1 33331U 08042A   13289.80657649  .00000391  00000-0  82939-4 0  6349
2 33331 098.1424 002.4323 0010824 133.9434 226.2657 14.64452547273104
0 GEOEYE 1
1 33331U 08042A   13290.21653129  .00000333  00000-0  71819-4 0  6357
2 33331 098.1414 002.8373 0010983 132.6585 227.5566 14.64452759273165
0 GEOEYE 1
1 33331U 08042A   13290.35318233  .00000289  00000-0  63519-4 0  6365
2 33331 098.1413 002.9723 0010986 132.2952 227.9171 14.64452585273186
0 GEOEYE 1
1 33331U 08042A   13290.69481111  .00000241  00000-0  54602-4 0  6370
2 33331 098.1409 003.3097 0011074 131.4213 228.7954 14.64452783273234
0 GEOEYE 1
1 33331U 08042A   13290.83146233  .00000208  00000-0  48263-4 0  6389
2 33331 098.1412 003.4450 0011123 131.0194 229.1965 14.64452648273250
0 GEOEYE 1
1 33331U 08042A   13291.17309131  .00000358  00000-0  76694-4 0  6391
2 33331 098.1415 003.7828 0011041 130.5498 229.6709 14.64453490273308
0 GEOEYE 1
1 33331U 08042A   13291.51471903  .00000348  00000-0  74814-4 0  6409
2 33331 098.1421 004.1210 0011068 129.2970 230.9222 14.64453753273356
0 GEOEYE 1
1 33331U 08042A   13291.85634690  .00000433  00000-0  90703-4 0  6411
2 33331 098.1424 004.4595 0011126 128.0956 232.1236 14.64454276273400
0 GEOEYE 1
1 33331U 08042A   13292.19797543  .00000408  00000-0  86014-4 0  6429
2 33331 098.1425 004.7974 0011154 127.2496 232.9735 14.64454561273450
0 GEOEYE 1
1 33331U 08042A   13292.53960321  .00000439  00000-0  91993-4 0  6430
2 33331 098.1428 005.1358 0011154 126.1468 234.0769 14.64455052273503
0 GEOEYE 1
1 33331U 08042A   13292.88123110  .00000336  00000-0  72503-4 0  6448
2 33331 098.1433 005.4740 0011193 125.0326 235.1891 14.64454680273550
0 GEOEYE 1
1 33331U 08042A   13293.22285984  .00000424  00000-0  89035-4 0  6452
2 33331 098.1434 005.8121 0011166 124.2688 235.9610 14.64455536273604
0 GEOEYE 1
1 33331U 08042A   13293.49616148  .00000436  00000-0  91255-4 0  6462
2 33331 098.1434 006.0826 0011178 123.4333 236.7946 14.64455850273644
0 GEOEYE 1
1 33331U 08042A   13293.83778902  .00000377  00000-0  80230-4 0  6473
2 33331 098.1431 006.4202 0011206 122.5151 237.7116 14.64455827273692
0 GEOEYE 1
1 33331U 08042A   13294.17941700  .00000500  00000-0  10340-3 0  6482
2 33331 098.1424 006.7581 0011214 121.4162 238.8159 14.64456826273741
0 GEOEYE 1
1 33331U 08042A   13294.52104387  .00000608  00000-0  12381-3 0  6490
2 33331 098.1424 007.0960 0011179 120.2448 239.9869 14.64457768273791
0 GEOEYE 1
1 33331U 08042A   13294.86267100  .00000571  00000-0  11682-3 0  6504
2 33331 098.1424 007.4338 0011178 119.1473 241.0837 14.64457985273844
0 GEOEYE 1
1 33331U 08042A   13295.20429868  .00000559  00000-0  11449-3 0  6512
2 33331 098.1423 007.7719 0011182 118.2371 241.9973 14.64458341273893
0 GEOEYE 1
1 33331U 08042A   13295.54592558  .00000587  00000-0  11986-3 0  6524
2 33331 098.1424 008.1097 0011211 117.2059 243.0290 14.64458884273946
0 GEOEYE 1
1 33331U 08042A   13295.88755284  .00000350  00000-0  75053-4 0  6533
2 33331 098.1424 008.4477 0011195 116.2036 244.0274 14.64457891273991
0 GEOEYE 1
1 33331U 08042A   13296.22918084  .00000452  00000-0  94425-4 0  6549
2 33331 098.1416 008.7856 0011215 115.2380 245.0012 14.64458814274044
